{"type": "FeatureCollection", "features": [{"type": "Feature", "properties": {"norad_id": 36828, "name": "BEIDOU-2 IGSO-1 (C06)", "group": "beidou", "lat": -42.97354822288099, "lon": 26.762988422353786, "alt_km": 35589.12641271107, "timestamp": "2025-12-17T13:48:37.819891+00:00", "meta": {"OBJECT_NAME": "BEIDOU-2 IGSO-1 (C06)", "OBJECT_ID": "2010-036A", "EPOCH": "2025-12-14T21:38:21.623424", "MEAN_MOTION": 1.00275796, "ECCENTRICITY": 0.00512569, "INCLINATION": 54.2866, "RA_OF_ASC_NODE": 164.6279, "ARG_OF_PERICENTER": 215.8888, "MEAN_ANOMALY": 135.7931, "EPHEMERIS_TYPE": 0, "CLASSIFICATION_TYPE": "U", "NORAD_CAT_ID": 36828, "ELEMENT_SET_NO": 999, "REV_AT_EPOCH": 5624, "BSTAR": 0, "MEAN_MOTION_DOT": -2.4e-07, "MEAN_MOTION_DDOT": 0}, "tle": {"line1": "1 36828U 10036A   25348.90163916 -.00000024  00000+0  00000+0 0  9999", "line2": "2 36828  54.2866 164.6279 0051256 215.8888 135.7931  1.00275796 56247"}}, "geometry": {"type": "Point", "coordinates": [26.762988422353786, -42.97354822288099]}}, {"type": "Feature", "properties": {"norad_id": 37210, "name": "BEIDOU-2 G4 (C04)", "group": "beidou", "lat": 1.31050819655617, "lon": 93.62076119612841, "alt_km": 35829.53615532419, "timestamp": "2025-12-17T13:48:37.819913+00:00", "meta": {"OBJECT_NAME": "BEIDOU-2 G4 (C04)", "OBJECT_ID": "2010-057A", "EPOCH": "2025-12-17T03:48:54.739296", "MEAN_MOTION": 1.00271975, "ECCENTRICITY": 0.0010516, "INCLINATION": 3.1954, "RA_OF_ASC_NODE": 69.923, "ARG_OF_PERICENTER": 192.1891, "MEAN_ANOMALY": 41.2344, "EPHEMERIS_TYPE": 0, "CLASSIFICATION_TYPE": "U", "NORAD_CAT_ID": 37210, "ELEMENT_SET_NO": 999, "REV_AT_EPOCH": 5546, "BSTAR": 0, "MEAN_MOTION_DOT": -8.9e-07, "MEAN_MOTION_DDOT": 0}, "tle": {"line1": "1 37210U 10057A   25351.15896689 -.00000089  00000+0  00000+0 0  9990", "line2": "2 37210   3.1954  69.9230 0010516 192.1891  41.2344  1.00271975 55460"}}, "geometry": {"type": "Point", "coordinates": [93.62076119612841, 1.31050819655617]}}, {"type": "Feature", "properties": {"norad_id": 37256, "name": "BEIDOU-2 IGSO-2 (C07)", "group": "beidou", "lat": 36.47427400023084, "lon": 52.191817877835874, "alt_km": 35775.054988680495, "timestamp": "2025-12-17T13:48:37.819927+00:00", "meta": {"OBJECT_NAME": "BEIDOU-2 IGSO-2 (C07)", "OBJECT_ID": "2010-068A", "EPOCH": "2025-12-16T17:17:38.444640", "MEAN_MOTION": 1.00285618, "ECCENTRICITY": 0.0048244, "INCLINATION": 47.8781, "RA_OF_ASC_NODE": 274.0996, "ARG_OF_PERICENTER": 216.2935, "MEAN_ANOMALY": 322.4053, "EPHEMERIS_TYPE": 0, "CLASSIFICATION_TYPE": "U", "NORAD_CAT_ID": 37256, "ELEMENT_SET_NO": 999, "REV_AT_EPOCH": 5496, "BSTAR": 0, "MEAN_MOTION_DOT": -2.14e-06, "MEAN_MOTION_DDOT": 0}, "tle": {"line1": "1 37256U 10068A   25350.72058385 -.00000214  00000+0  00000+0 0  9997", "line2": "2 37256  47.8781 274.0996 0048244 216.2935 322.4053  1.00285618 54961"}}, "geometry": {"type": "Point", "coordinates": [52.191817877835874, 36.47427400023084]}}, {"type": "Feature", "properties": {"norad_id": 37384, "name": "BEIDOU-2 IGSO-3 (C08)", "group": "beidou", "lat": -0.7472666458895307, "lon": 41.51392323794833, "alt_km": 35934.91839456687, "timestamp": "2025-12-17T13:48:37.819939+00:00", "meta": {"OBJECT_NAME": "BEIDOU-2 IGSO-3 (C08)", "OBJECT_ID": "2011-013A", "EPOCH": "2025-12-16T19:14:25.722240", "MEAN_MOTION": 1.00270021, "ECCENTRICITY": 0.00353731, "INCLINATION": 62.1488, "RA_OF_ASC_NODE": 41.877, "ARG_OF_PERICENTER": 187.9496, "MEAN_ANOMALY": 251.9313, "EPHEMERIS_TYPE": 0, "CLASSIFICATION_TYPE": "U", "NORAD_CAT_ID": 37384, "ELEMENT_SET_NO": 999, "REV_AT_EPOCH": 5383, "BSTAR": 0, "MEAN_MOTION_DOT": -1.84e-06, "MEAN_MOTION_DDOT": 0}, "tle": {"line1": "1 37384U 11013A   25350.80168660 -.00000184  00000+0  00000+0 0  9993", "line2": "2 37384  62.1488  41.8770 0035373 187.9496 251.9313  1.00270021 53834"}}, "geometry": {"type": "Point", "coordinates": [41.51392323794833, -0.7472666458895307]}}, {"type": "Feature", "properties": {"norad_id": 37763, "name": "BEIDOU-2 IGSO-4 (C09)", "group": "beidou", "lat": -31.98384839439062, "lon": 13.724684839651575, "alt_km": 35166.903017655706, "timestamp": "2025-12-17T13:48:37.819951+00:00", "meta": {"OBJECT_NAME": "BEIDOU-2 IGSO-4 (C09)", "OBJECT_ID": "2011-038A", "EPOCH": "2025-12-15T07:50:06.120672", "MEAN_MOTION": 1.00281785, "ECCENTRICITY": 0.01493054, "INCLINATION": 54.5835, "RA_OF_ASC_NODE": 167.3229, "ARG_OF_PERICENTER": 230.222, "MEAN_ANOMALY": 258.6911, "EPHEMERIS_TYPE": 0, "CLASSIFICATION_TYPE": "U", "NORAD_CAT_ID": 37763, "ELEMENT_SET_NO": 999, "REV_AT_EPOCH": 5280, "BSTAR": 0, "MEAN_MOTION_DOT": 6.8e-07, "MEAN_MOTION_DDOT": 0}, "tle": {"line1": "1 37763U 11038A   25349.32645973  .00000068  00000+0  00000+0 0  9993", "line2": "2 37763  54.5835 167.3229 0149305 230.2220 258.6911  1.00281785 52800"}}, "geometry": {"type": "Point", "coordinates": [13.724684839651575, -31.98384839439062]}}, {"type": "Feature", "properties": {"norad_id": 37948, "name": "BEIDOU-2 IGSO-5 (C10)", "group": "beidou", "lat": 43.64548487453522, "lon": 34.780429574774985, "alt_km": 35932.6068259001, "timestamp": "2025-12-17T13:48:37.819964+00:00", "meta": {"OBJECT_NAME": "BEIDOU-2 IGSO-5 (C10)", "OBJECT_ID": "2011-073A", "EPOCH": "2025-12-16T20:45:03.347712", "MEAN_MOTION": 1.00290524, "ECCENTRICITY": 0.01100285, "INCLINATION": 48.0123, "RA_OF_ASC_NODE": 273.8075, "ARG_OF_PERICENTER": 222.3616, "MEAN_ANOMALY": 354.0663, "EPHEMERIS_TYPE": 0, "CLASSIFICATION_TYPE": "U", "NORAD_CAT_ID": 37948, "ELEMENT_SET_NO": 999, "REV_AT_EPOCH": 5130, "BSTAR": 0, "MEAN_MOTION_DOT": -1.89e-06, "MEAN_MOTION_DDOT": 0}, "tle": {"line1": "1 37948U 11073A   25350.86462208 -.00000189  00000+0  00000+0 0  9991", "line2": "2 37948  48.0123 273.8075 0110028 222.3616 354.0663  1.00290524 51306"}}, "geometry": {"type": "Point", "coordinates": [34.780429574774985, 43.64548487453522]}}, {"type": "Feature", "properties": {"norad_id": 38091, "name": "BEIDOU-2 G5 (C05)", "group": "beidou", "lat": -3.0527585922916165, "lon": -7.45904302884581, "alt_km": 35752.86391519492, "timestamp": "2025-12-17T13:48:37.819976+00:00", "meta": {"OBJECT_NAME": "BEIDOU-2 G5 (C05)", "OBJECT_ID": "2012-008A", "EPOCH": "2025-12-16T15:20:55.893984", "MEAN_MOTION": 1.00267602, "ECCENTRICITY": 0.00130267, "INCLINATION": 3.1186, "RA_OF_ASC_NODE": 70.7002, "ARG_OF_PERICENTER": 231.2097, "MEAN_ANOMALY": 72.6715, "EPHEMERIS_TYPE": 0, "CLASSIFICATION_TYPE": "U", "NORAD_CAT_ID": 38091, "ELEMENT_SET_NO": 999, "REV_AT_EPOCH": 5053, "BSTAR": 0, "MEAN_MOTION_DOT": 7.8e-07, "MEAN_MOTION_DDOT": 0}, "tle": {"line1": "1 38091U 12008A   25350.63953581  .00000078  00000+0  00000+0 0  9990", "line2": "2 38091   3.1186  70.7002 0013026 231.2097  72.6715  1.00267602 50539"}}, "geometry": {"type": "Point", "coordinates": [-7.45904302884581, -3.0527585922916165]}}, {"type": "Feature", "properties": {"norad_id": 38250, "name": "BEIDOU-2 M3 (C11)", "group": "beidou", "lat": -55.01965302491531, "lon": -124.2775346910981, "alt_km": 21466.309355442118, "timestamp": "2025-12-17T13:48:37.819988+00:00", "meta": {"OBJECT_NAME": "BEIDOU-2 M3 (C11)", "OBJECT_ID": "2012-018A", "EPOCH": "2025-12-17T03:50:10.570848", "MEAN_MOTION": 1.86229929, "ECCENTRICITY": 0.00242921, "INCLINATION": 55.916, "RA_OF_ASC_NODE": 311.0083, "ARG_OF_PERICENTER": 274.6123, "MEAN_ANOMALY": 85.0955, "EPHEMERIS_TYPE": 0, "CLASSIFICATION_TYPE": "U", "NORAD_CAT_ID": 38250, "ELEMENT_SET_NO": 999, "REV_AT_EPOCH": 9255, "BSTAR": 0, "MEAN_MOTION_DOT": -9.2e-07, "MEAN_MOTION_DDOT": 0}, "tle": {"line1": "1 38250U 12018A   25351.15984457 -.00000092  00000+0  00000+0 0  9999", "line2": "2 38250  55.9160 311.0083 0024292 274.6123  85.0955  1.86229929 92557"}}, "geometry": {"type": "Point", "coordinates": [-124.2775346910981, -55.01965302491531]}}, {"type": "Feature", "properties": {"norad_id": 38251, "name": "BEIDOU-2 M4 (C12)", "group": "beidou", "lat": -28.98977085051626, "lon": -71.90380729614593, "alt_km": 21502.07721846716, "timestamp": "2025-12-17T13:48:37.819999+00:00", "meta": {"OBJECT_NAME": "BEIDOU-2 M4 (C12)", "OBJECT_ID": "2012-018B", "EPOCH": "2025-12-17T02:12:20.700000", "MEAN_MOTION": 1.86229502, "ECCENTRICITY": 0.00154788, "INCLINATION": 55.8177, "RA_OF_ASC_NODE": 310.2391, "ARG_OF_PERICENTER": 277.6479, "MEAN_ANOMALY": 82.1616, "EPHEMERIS_TYPE": 0, "CLASSIFICATION_TYPE": "U", "NORAD_CAT_ID": 38251, "ELEMENT_SET_NO": 999, "REV_AT_EPOCH": 9255, "BSTAR": 0, "MEAN_MOTION_DOT": -9.2e-07, "MEAN_MOTION_DDOT": 0}, "tle": {"line1": "1 38251U 12018B   25351.09190625 -.00000092  00000+0  00000+0 0  9999", "line2": "2 38251  55.8177 310.2391 0015478 277.6479  82.1616  1.86229502 92550"}}, "geometry": {"type": "Point", "coordinates": [-71.90380729614593, -28.98977085051626]}}, {"type": "Feature", "properties": {"norad_id": 38775, "name": "BEIDOU-2 M6 (C14)", "group": "beidou", "lat": 18.147241399826395, "lon": -123.65599498732051, "alt_km": 21557.421890288024, "timestamp": "2025-12-17T13:48:37.820010+00:00", "meta": {"OBJECT_NAME": "BEIDOU-2 M6 (C14)", "OBJECT_ID": "2012-050B", "EPOCH": "2025-12-16T06:22:47.654112", "MEAN_MOTION": 1.86230757, "ECCENTRICITY": 0.00113185, "INCLINATION": 56.3814, "RA_OF_ASC_NODE": 68.9504, "ARG_OF_PERICENTER": 343.5807, "MEAN_ANOMALY": 16.4038, "EPHEMERIS_TYPE": 0, "CLASSIFICATION_TYPE": "U", "NORAD_CAT_ID": 38775, "ELEMENT_SET_NO": 999, "REV_AT_EPOCH": 8990, "BSTAR": 0, "MEAN_MOTION_DOT": -8e-07, "MEAN_MOTION_DDOT": 0}, "tle": {"line1": "1 38775U 12050B   25350.26582933 -.00000080  00000+0  00000+0 0  9998", "line2": "2 38775  56.3814  68.9504 0011318 343.5807  16.4038  1.86230757 89902"}}, "geometry": {"type": "Point", "coordinates": [-123.65599498732051, 18.147241399826395]}}]}